{"type": "FeatureCollection", "features": [ {"type": "Feature", "properties": {"norad_id": 31882, "name": "FENGYUN 1C DEB", "group": "fengyun-1c-debris", "lat": -22.23964906164569, "lon": -96.17466307147134, "alt_km": 852.6114402926314, "timestamp": "2025-12-03T13:52:09.846355+00:00", "meta": {"OBJECT_NAME": "FENGYUN 1C DEB", "OBJECT_ID": "1999-025CKH", "EPOCH": "2025-11-30T12:53:42.925632", "MEAN_MOTION": 14.12922645, "ECCENTRICITY": 0.003563, "INCLINATION": 98.9155, "RA_OF_ASC_NODE": 257.1184, "ARG_OF_PERICENTER": 260.5301, "MEAN_ANOMALY": 99.1843, "EPHEMERIS_TYPE": 0, "CLASSIFICATION_TYPE": "U", "NORAD_CAT_ID": 31882, "ELEMENT_SET_NO": 999, "REV_AT_EPOCH": 58464, "BSTAR": 0.00072141, "MEAN_MOTION_DOT": 1.307e-05, "MEAN_MOTION_DDOT": 0}, "tle": {"line1": "1 31882U 99025CKH 25334.53730238  .00001307  00000+0  72141-3 0  9993", "line2": "2 31882  98.9155 257.1184 0035630 260.5301  99.1843 14.12922645584640"}}, "geometry": {"type": "Point", "coordinates": [-96.17466307147134, -22.23964906164569]}}, {"type": "Feature", "properties": {"norad_id": 31883, "name": "FENGYUN 1C DEB", "group": "fengyun-1c-debris", "lat": 34.02637061419323, "lon": -112.89006698667633, "alt_km": 624.8349029105302, "timestamp": "2025-12-03T13:52:09.846365+00:00", "meta": {"OBJECT_NAME": "FENGYUN 1C DEB", "OBJECT_ID": "1999-025CKJ", "EPOCH": "2025-12-03T05:31:55.263936", "MEAN_MOTION": 14.67606056, "ECCENTRICITY": 0.01252705, "INCLINATION": 99.0277, "RA_OF_ASC_NODE": 252.8895, "ARG_OF_PERICENTER": 98.143, "MEAN_ANOMALY": 263.4004, "EPHEMERIS_TYPE": 0, "CLASSIFICATION_TYPE": "U", "NORAD_CAT_ID": 31883, "ELEMENT_SET_NO": 999, "REV_AT_EPOCH": 97839, "BSTAR": 0.00088311327, "MEAN_MOTION_DOT": 5.586e-05, "MEAN_MOTION_DDOT": 0}, "tle": {"line1": "1 31883U 99025CKJ 25337.23050074  .00005586  00000+0  88311-3 0  9996", "line2": "2 31883  99.0277 252.8895 0125270  98.1430 263.4004 14.67606056978396"}}, "geometry": {"type": "Point", "coordinates": [-112.89006698667633, 34.02637061419323]}}, {"type": "Feature", "properties": {"norad_id": 31887, "name": "FENGYUN 1C DEB", "group": "fengyun-1c-debris", "lat": 35.39877012784336, "lon": -145.284284225398, "alt_km": 704.5702858362838, "timestamp": "2025-12-03T13:52:09.846375+00:00", "meta": {"OBJECT_NAME": "FENGYUN 1C DEB", "OBJECT_ID": "1999-025CKN", "EPOCH": "2025-12-01T21:40:30.420768", "MEAN_MOTION": 14.57640474, "ECCENTRICITY": 0.00244837, "INCLINATION": 99.536, "RA_OF_ASC_NODE": 25.9385, "ARG_OF_PERICENTER": 37.5978, "MEAN_ANOMALY": 322.6923, "EPHEMERIS_TYPE": 0, "CLASSIFICATION_TYPE": "U", "NORAD_CAT_ID": 31887, "ELEMENT_SET_NO": 999, "REV_AT_EPOCH": 96450, "BSTAR": 0.0013108732, "MEAN_MOTION_DOT": 5.945e-05, "MEAN_MOTION_DDOT": 0}, "tle": {"line1": "1 31887U 99025CKN 25335.90312987  .00005945  00000+0  13109-2 0  9997", "line2": "2 31887  99.5360  25.9385 0024483  37.5978 322.6923 14.57640474964506"}}, "geometry": {"type": "Point", "coordinates": [-145.284284225398, 35.39877012784336]}}, {"type": "Feature", "properties": {"norad_id": 31888, "name": "FENGYUN 1C DEB", "group": "fengyun-1c-debris", "lat": -61.19800138464058, "lon": 66.40407182922254, "alt_km": 773.3293136180591, "timestamp": "2025-12-03T13:52:09.846385+00:00", "meta": {"OBJECT_NAME": "FENGYUN 1C DEB", "OBJECT_ID": "1999-025CKP", "EPOCH": "2025-11-28T00:25:18.962112", "MEAN_MOTION": 14.3367913, "ECCENTRICITY": 0.00183068, "INCLINATION": 99.1503, "RA_OF_ASC_NODE": 257.5749, "ARG_OF_PERICENTER": 264.7226, "MEAN_ANOMALY": 95.1868, "EPHEMERIS_TYPE": 0, "CLASSIFICATION_TYPE": "U", "NORAD_CAT_ID": 31888, "ELEMENT_SET_NO": 999, "REV_AT_EPOCH": 95426, "BSTAR": 0.002133667, "MEAN_MOTION_DOT": 5.886e-05, "MEAN_MOTION_DDOT": 0}, "tle": {"line1": "1 31888U 99025CKP 25332.01758058  .00005886  00000+0  21337-2 0  9996", "line2": "2 31888  99.1503 257.5749 0018306 264.7226  95.1868 14.33679130954263"}}, "geometry": {"type": "Point", "coordinates": [66.40407182922254, -61.19800138464058]}}, {"type": "Feature", "properties": {"norad_id": 31890, "name": "FENGYUN 1C DEB", "group": "fengyun-1c-debris", "lat": -13.00017660179758, "lon": -8.590943115378344, "alt_km": 852.4925616921919, "timestamp": "2025-12-03T13:52:09.846396+00:00", "meta": {"OBJECT_NAME": "FENGYUN 1C DEB", "OBJECT_ID": "1999-025CKR", "EPOCH": "2025-11-29T06:03:10.935360", "MEAN_MOTION": 14.10123463, "ECCENTRICITY": 0.0071505, "INCLINATION": 98.7193, "RA_OF_ASC_NODE": 345.1857, "ARG_OF_PERICENTER": 280.9429, "MEAN_ANOMALY": 78.3703, "EPHEMERIS_TYPE": 0, "CLASSIFICATION_TYPE": "U", "NORAD_CAT_ID": 31890, "ELEMENT_SET_NO": 999, "REV_AT_EPOCH": 63962, "BSTAR": 0.00016294862, "MEAN_MOTION_DOT": 2.52e-06, "MEAN_MOTION_DDOT": 0}, "tle": {"line1": "1 31890U 99025CKR 25333.25220990  .00000252  00000+0  16295-3 0  9995", "line2": "2 31890  98.7193 345.1857 0071505 280.9429  78.3703 14.10123463639624"}}, "geometry": {"type": "Point", "coordinates": [-8.590943115378344, -13.00017660179758]}}, {"type": "Feature", "properties": {"norad_id": 31891, "name": "FENGYUN 1C DEB", "group": "fengyun-1c-debris", "lat": -78.60210120498961, "lon": 117.65044102502776, "alt_km": 926.5534265009546, "timestamp": "2025-12-03T13:52:09.846406+00:00", "meta": {"OBJECT_NAME": "FENGYUN 1C DEB", "OBJECT_ID": "1999-025CKS", "EPOCH": "2025-12-02T11:58:50.101536", "MEAN_MOTION": 13.6618805, "ECCENTRICITY": 0.02247087, "INCLINATION": 99.4026, "RA_OF_ASC_NODE": 351.8798, "ARG_OF_PERICENTER": 209.7077, "MEAN_ANOMALY": 149.115, "EPHEMERIS_TYPE": 0, "CLASSIFICATION_TYPE": "U", "NORAD_CAT_ID": 31891, "ELEMENT_SET_NO": 999, "REV_AT_EPOCH": 92270, "BSTAR": 0.00069255791, "MEAN_MOTION_DOT": 6.36e-06, "MEAN_MOTION_DDOT": 0}, "tle": {"line1": "1 31891U 99025CKS 25336.49919099  .00000636  00000+0  69256-3 0  9991", "line2": "2 31891  99.4026 351.8798 0224708 209.7077 149.1150 13.66188050922709"}}, "geometry": {"type": "Point", "coordinates": [117.65044102502776, -78.60210120498961]}}, {"type": "Feature", "properties": {"norad_id": 31892, "name": "FENGYUN 1C DEB", "group": "fengyun-1c-debris", "lat": -70.4463544073412, "lon": -60.90026900067924, "alt_km": 690.5018098136716, "timestamp": "2025-12-03T13:52:09.846715+00:00", "meta": {"OBJECT_NAME": "FENGYUN 1C DEB", "OBJECT_ID": "1999-025CKT", "EPOCH": "2025-11-28T17:42:34.843392", "MEAN_MOTION": 14.41106242, "ECCENTRICITY": 0.01997526, "INCLINATION": 99.2904, "RA_OF_ASC_NODE": 141.2838, "ARG_OF_PERICENTER": 327.726, "MEAN_ANOMALY": 31.1829, "EPHEMERIS_TYPE": 0, "CLASSIFICATION_TYPE": "U", "NORAD_CAT_ID": 31892, "ELEMENT_SET_NO": 999, "REV_AT_EPOCH": 64704, "BSTAR": 0.00049032376, "MEAN_MOTION_DOT": 1.94e-05, "MEAN_MOTION_DDOT": 0}, "tle": {"line1": "1 31892U 99025CKT 25332.73790328  .00001940  00000+0  49032-3 0  9996", "line2": "2 31892  99.2904 141.2838 0199752 327.7260  31.1829 14.41106242647045"}}, "geometry": {"type": "Point", "coordinates": [-60.90026900067924, -70.4463544073412]}}, {"type": "Feature", "properties": {"norad_id": 31893, "name": "FENGYUN 1C DEB", "group": "fengyun-1c-debris", "lat": -58.62490605371199, "lon": 99.75368300106882, "alt_km": 739.1791898981573, "timestamp": "2025-12-03T13:52:09.846728+00:00", "meta": {"OBJECT_NAME": "FENGYUN 1C DEB", "OBJECT_ID": "1999-025CKU", "EPOCH": "2025-12-02T16:15:02.611584", "MEAN_MOTION": 14.63662798, "ECCENTRICITY": 0.01757933, "INCLINATION": 99.0681, "RA_OF_ASC_NODE": 293.9459, "ARG_OF_PERICENTER": 357.5764, "MEAN_ANOMALY": 180.4065, "EPHEMERIS_TYPE": 0, "CLASSIFICATION_TYPE": "U", "NORAD_CAT_ID": 31893, "ELEMENT_SET_NO": 999, "REV_AT_EPOCH": 98257, "BSTAR": 0.0006336254, "MEAN_MOTION_DOT": 4.059e-05, "MEAN_MOTION_DDOT": 0}, "tle": {"line1": "1 31893U 99025CKU 25336.67711356  .00004059  00000+0  63363-3 0  9995", "line2": "2 31893  99.0681 293.9459 0175793 357.5764 180.4065 14.63662798982576"}}, "geometry": {"type": "Point", "coordinates": [99.75368300106882, -58.62490605371199]}}, {"type": "Feature", "properties": {"norad_id": 31895, "name": "FENGYUN 1C DEB", "group": "fengyun-1c-debris", "lat": 41.720737757826846, "lon": -164.89917154092834, "alt_km": 1047.0473932881105, "timestamp": "2025-12-03T13:52:09.846738+00:00", "meta": {"OBJECT_NAME": "FENGYUN 1C DEB", "OBJECT_ID": "1999-025CKW", "EPOCH": "2025-12-03T07:56:30.825312", "MEAN_MOTION": 13.7544657, "ECCENTRICITY": 0.02267432, "INCLINATION": 99.0966, "RA_OF_ASC_NODE": 6.6524, "ARG_OF_PERICENTER": 254.3367, "MEAN_ANOMALY": 103.2662, "EPHEMERIS_TYPE": 0, "CLASSIFICATION_TYPE": "U", "NORAD_CAT_ID": 31895, "ELEMENT_SET_NO": 999, "REV_AT_EPOCH": 61767, "BSTAR": 0.0029193621, "MEAN_MOTION_DOT": 3.344e-05, "MEAN_MOTION_DDOT": 0}, "tle": {"line1": "1 31895U 99025CKW 25337.33091233  .00003344  00000+0  29194-2 0  9995", "line2": "2 31895  99.0966   6.6524 0226743 254.3367 103.2662 13.75446570617673"}}, "geometry": {"type": "Point", "coordinates": [-164.89917154092834, 41.720737757826846]}}, {"type": "Feature", "properties": {"norad_id": 31898, "name": "FENGYUN 1C DEB", "group": "fengyun-1c-debris", "lat": 15.671678557763117, "lon": 24.220092432329633, "alt_km": 656.0319152935881, "timestamp": "2025-12-03T13:52:09.846749+00:00", "meta": {"OBJECT_NAME": "FENGYUN 1C DEB", "OBJECT_ID": "1999-025CKZ", "EPOCH": "2025-12-01T10:24:18.717408", "MEAN_MOTION": 14.68161686, "ECCENTRICITY": 0.01444865, "INCLINATION": 98.7075, "RA_OF_ASC_NODE": 199.4746, "ARG_OF_PERICENTER": 255.0364, "MEAN_ANOMALY": 103.4805, "EPHEMERIS_TYPE": 0, "CLASSIFICATION_TYPE": "U", "NORAD_CAT_ID": 31898, "ELEMENT_SET_NO": 999, "REV_AT_EPOCH": 65546, "BSTAR": 0.0015260196, "MEAN_MOTION_DOT": 0.00010232, "MEAN_MOTION_DDOT": 0}, "tle": {"line1": "1 31898U 99025CKZ 25335.43354997  .00010232  00000+0  15260-2 0  9999", "line2": "2 31898  98.7075 199.4746 0144486 255.0364 103.4805 14.68161686655463"}}, "geometry": {"type": "Point", "coordinates": [24.220092432329633, 15.671678557763117]}}]}